{
  "type": "FeatureCollection",
  "features": [
    {
      "type": "Feature",
      "properties": {
        "norad_id": 33731,
        "name": "FENGYUN 1C DEB",
        "group": "fengyun-1c-debris",
        "lat": -32.23959612050922,
        "lon": 21.293614995544832,
        "alt_km": 885.9747992794028,
        "timestamp": "2025-12-18T21:31:51.288692+00:00",
        "meta_object_name": "FENGYUN 1C DEB",
        "meta_object_id": "1999-025DHU",
        "meta_epoch": "2025-12-14T07:32:51.114336",
        "meta_mean_motion": 13.95346461,
        "meta_eccentricity": 0.01291818,
        "meta_inclination": 99.4471,
        "meta_ra_of_asc_node": 10.5718,
        "meta_arg_of_pericenter": 51.9301,
        "meta_mean_anomaly": 309.3431,
        "meta_ephemeris_type": 0,
        "meta_classification_type": "U",
        "meta_norad_cat_id": 33731,
        "meta_element_set_no": 999,
        "meta_rev_at_epoch": 90471,
        "meta_bstar": 0.0013457717,
        "meta_mean_motion_dot": 1.908e-05,
        "meta_mean_motion_ddot": 0,
        "tle_line1": "1 33731U 99025DHU 25348.31448049  .00001908  00000+0  13458-2 0  9997",
        "tle_line2": "2 33731  99.4471  10.5718 0129181  51.9301 309.3431 13.95346461904712"
      },
      "geometry": {
        "type": "Point",
        "coordinates": [
          21.293614995544832,
          -32.23959612050922
        ]
      }
    },
    {
      "type": "Feature",
      "properties": {
        "norad_id": 33733,
        "name": "FENGYUN 1C DEB",
        "group": "fengyun-1c-debris",
        "lat": 16.244664816683475,
        "lon": 75.83388090413357,
        "alt_km": 829.7800079095177,
        "timestamp": "2025-12-18T21:31:51.288703+00:00",
        "meta_object_name": "FENGYUN 1C DEB",
        "meta_object_id": "1999-025DHW",
        "meta_epoch": "2025-12-14T05:17:42.025920",
        "meta_mean_motion": 14.31053637,
        "meta_eccentricity": 0.00804283,
        "meta_inclination": 99.0978,
        "meta_ra_of_asc_node": 73.616,
        "meta_arg_of_pericenter": 166.2685,
        "meta_mean_anomaly": 251.3146,
        "meta_ephemeris_type": 0,
        "meta_classification_type": "U",
        "meta_norad_cat_id": 33733,
        "meta_element_set_no": 999,
        "meta_rev_at_epoch": 90469,
        "meta_bstar": 0.0039221093,
        "meta_mean_motion_dot": 0.00010671,
        "meta_mean_motion_ddot": 0,
        "tle_line1": "1 33733U 99025DHW 25348.22062530  .00010671  00000+0  39221-2 0  9999",
        "tle_line2": "2 33733  99.0978  73.6160 0080428 166.2685 251.3146 14.31053637904695"
      },
      "geometry": {
        "type": "Point",
        "coordinates": [
          75.83388090413357,
          16.244664816683475
        ]
      }
    },
    {
      "type": "Feature",
      "properties": {
        "norad_id": 33737,
        "name": "FENGYUN 1C DEB",
        "group": "fengyun-1c-debris",
        "lat": -48.3479641237262,
        "lon": -164.21326854892817,
        "alt_km": 824.0535622316984,
        "timestamp": "2025-12-18T21:31:51.288713+00:00",
        "meta_object_name": "FENGYUN 1C DEB",
        "meta_object_id": "1999-025DJA",
        "meta_epoch": "2025-12-18T01:49:45.788160",
        "meta_mean_motion": 14.0301989,
        "meta_eccentricity": 0.01283776,
        "meta_inclination": 98.3371,
        "meta_ra_of_asc_node": 185.5453,
        "meta_arg_of_pericenter": 267.9908,
        "meta_mean_anomaly": 218.0852,
        "meta_ephemeris_type": 0,
        "meta_classification_type": "U",
        "meta_norad_cat_id": 33737,
        "meta_element_set_no": 999,
        "meta_rev_at_epoch": 88815,
        "meta_bstar": 0.0011217007,
        "meta_mean_motion_dot": 1.834e-05,
        "meta_mean_motion_ddot": 0,
        "tle_line1": "1 33737U 99025DJA 25352.07622440  .00001834  00000+0  11217-2 0  9999",
        "tle_line2": "2 33737  98.3371 185.5453 0128377 267.9908 218.0852 14.03019890888157"
      },
      "geometry": {
        "type": "Point",
        "coordinates": [
          -164.21326854892817,
          -48.3479641237262
        ]
      }
    },
    {
      "type": "Feature",
      "properties": {
        "norad_id": 33738,
        "name": "FENGYUN 1C DEB",
        "group": "fengyun-1c-debris",
        "lat": 25.249007194740923,
        "lon": -122.70973488955383,
        "alt_km": 1009.9214638089243,
        "timestamp": "2025-12-18T21:31:51.288724+00:00",
        "meta_object_name": "FENGYUN 1C DEB",
        "meta_object_id": "1999-025DJB",
        "meta_epoch": "2025-12-16T10:32:33.645120",
        "meta_mean_motion": 13.99537717,
        "meta_eccentricity": 0.01845971,
        "meta_inclination": 99.1516,
        "meta_ra_of_asc_node": 50.4728,
        "meta_arg_of_pericenter": 11.2707,
        "meta_mean_anomaly": 5.2548,
        "meta_ephemeris_type": 0,
        "meta_classification_type": "U",
        "meta_norad_cat_id": 33738,
        "meta_element_set_no": 999,
        "meta_rev_at_epoch": 89288,
        "meta_bstar": 0.00049038392,
        "meta_mean_motion_dot": 7.83e-06,
        "meta_mean_motion_ddot": 0,
        "tle_line1": "1 33738U 99025DJB 25350.43927830  .00000783  00000+0  49038-3 0  9994",
        "tle_line2": "2 33738  99.1516  50.4728 0184597  11.2707   5.2548 13.99537717892886"
      },
      "geometry": {
        "type": "Point",
        "coordinates": [
          -122.70973488955383,
          25.249007194740923
        ]
      }
    },
    {
      "type": "Feature",
      "properties": {
        "norad_id": 33740,
        "name": "FENGYUN 1C DEB",
        "group": "fengyun-1c-debris",
        "lat": 64.23245215546504,
        "lon": -155.91707785578967,
        "alt_km": 843.5461828598918,
        "timestamp": "2025-12-18T21:31:51.288734+00:00",
        "meta_object_name": "FENGYUN 1C DEB",
        "meta_object_id": "1999-025DJD",
        "meta_epoch": "2025-12-18T07:23:22.108128",
        "meta_mean_motion": 14.12325643,
        "meta_eccentricity": 0.00021877,
        "meta_inclination": 98.6868,
        "meta_ra_of_asc_node": 5.0478,
        "meta_arg_of_pericenter": 119.664,
        "meta_mean_anomaly": 240.475,
        "meta_ephemeris_type": 0,
        "meta_classification_type": "U",
        "meta_norad_cat_id": 33740,
        "meta_element_set_no": 999,
        "meta_rev_at_epoch": 90225,
        "meta_bstar": 0.00012962131,
        "meta_mean_motion_dot": 1.96e-06,
        "meta_mean_motion_ddot": 0,
        "tle_line1": "1 33740U 99025DJD 25352.30789477  .00000196  00000+0  12962-3 0  9992",
        "tle_line2": "2 33740  98.6868   5.0478 0002187 119.6640 240.4750 14.12325643902254"
      },
      "geometry": {
        "type": "Point",
        "coordinates": [
          -155.91707785578967,
          64.23245215546504
        ]
      }
    },
    {
      "type": "Feature",
      "properties": {
        "norad_id": 33741,
        "name": "FENGYUN 1C DEB",
        "group": "fengyun-1c-debris",
        "lat": 77.73252270940398,
        "lon": 130.08343413251703,
        "alt_km": 770.3073057594866,
        "timestamp": "2025-12-18T21:31:51.288744+00:00",
        "meta_object_name": "FENGYUN 1C DEB",
        "meta_object_id": "1999-025DJE",
        "meta_epoch": "2025-12-17T00:47:21.421248",
        "meta_mean_motion": 14.09848118,
        "meta_eccentricity": 0.01281815,
        "meta_inclination": 98.5661,
        "meta_ra_of_asc_node": 264.4259,
        "meta_arg_of_pericenter": 76.1645,
        "meta_mean_anomaly": 285.3751,
        "meta_ephemeris_type": 0,
        "meta_classification_type": "U",
        "meta_norad_cat_id": 33741,
        "meta_element_set_no": 999,
        "meta_rev_at_epoch": 56923,
        "meta_bstar": 0.0017034316,
        "meta_mean_motion_dot": 3.195e-05,
        "meta_mean_motion_ddot": 0,
        "tle_line1": "1 33741U 99025DJE 25351.03288682  .00003195  00000+0  17034-2 0  9990",
        "tle_line2": "2 33741  98.5661 264.4259 0128181  76.1645 285.3751 14.09848118569237"
      },
      "geometry": {
        "type": "Point",
        "coordinates": [
          130.08343413251703,
          77.73252270940398
        ]
      }
    },
    {
      "type": "Feature",
      "properties": {
        "norad_id": 33745,
        "name": "FENGYUN 1C DEB",
        "group": "fengyun-1c-debris",
        "lat": 15.617134081689452,
        "lon": 27.69495993167934,
        "alt_km": 841.6788010133887,
        "timestamp": "2025-12-18T21:31:51.288754+00:00",
        "meta_object_name": "FENGYUN 1C DEB",
        "meta_object_id": "1999-025DJJ",
        "meta_epoch": "2025-12-17T13:22:43.604832",
        "meta_mean_motion": 14.22346964,
        "meta_eccentricity": 0.00542183,
        "meta_inclination": 99.1148,
        "meta_ra_of_asc_node": 28.8825,
        "meta_arg_of_pericenter": 252.2828,
        "meta_mean_anomaly": 107.2426,
        "meta_ephemeris_type": 0,
        "meta_classification_type": "U",
        "meta_norad_cat_id": 33745,
        "meta_element_set_no": 999,
        "meta_rev_at_epoch": 66070,
        "meta_bstar": 0.0010724416,
        "meta_mean_motion_dot": 2.374e-05,
        "meta_mean_motion_ddot": 0,
        "tle_line1": "1 33745U 99025DJJ 25351.55744913  .00002374  00000+0  10724-2 0  9992",
        "tle_line2": "2 33745  99.1148  28.8825 0054218 252.2828 107.2426 14.22346964660700"
      },
      "geometry": {
        "type": "Point",
        "coordinates": [
          27.69495993167934,
          15.617134081689452
        ]
      }
    }
  ]
}